[Satellite]
VERSION=1.1
NAME=COSMOS 2242
NICKNAME=COSMOS 2242
TLE1=1 22626U 93024A   20158.12407706  .00000171  00000-0  15821-4 0  9999
TLE2=2 22626  82.5220  98.7028 0020335 116.4562 243.8745 14.87998035467476
STATUS=0
